[{"OBJECT_NAME":"QIANFAN-64","OBJECT_ID":"2025-016K","EPOCH":"2026-03-09T23:33:58.082400","MEAN_MOTION":13.51005739,"ECCENTRICITY":0.00162512,"INCLINATION":88.9674,"RA_OF_ASC_NODE":93.9918,"ARG_OF_PERICENTER":90.3417,"MEAN_ANOMALY":269.9596,"EPHEMERIS_TYPE":0,"CLASSIFICATION_TYPE":"U","NORAD_CAT_ID":62794,"ELEMENT_SET_NO":999,"REV_AT_EPOCH":5904,"BSTAR":4.1237248e-5,"MEAN_MOTION_DOT":3.9e-7,"MEAN_MOTION_DDOT":0},{"OBJECT_NAME":"COSMOS 1275 DEB","OBJECT_ID":"1981-053JD","EPOCH":"2026-03-02T12:10:36.646176","MEAN_MOTION":13.72981652,"ECCENTRICITY":0.01138107,"INCLINATION":82.9573,"RA_OF_ASC_NODE":251.1665,"ARG_OF_PERICENTER":325.8999,"MEAN_ANOMALY":62.2172,"EPHEMERIS_TYPE":0,"CLASSIFICATION_TYPE":"U","NORAD_CAT_ID":14408,"ELEMENT_SET_NO":999,"REV_AT_EPOCH":68882,"BSTAR":0.0011023898,"MEAN_MOTION_DOT":1.079e-5,"MEAN_MOTION_DDOT":0}]
